[{"OBJECT_NAME":"STARLINK-3772","OBJECT_ID":"2022-041AF","EPOCH":"2026-03-09T11:44:37.283424","MEAN_MOTION":15.08841119,"ECCENTRICITY":0.0001311,"INCLINATION":53.216,"RA_OF_ASC_NODE":100.0206,"ARG_OF_PERICENTER":89.4424,"MEAN_ANOMALY":270.6719,"EPHEMERIS_TYPE":0,"CLASSIFICATION_TYPE":"U","NORAD_CAT_ID":52290,"ELEMENT_SET_NO":999,"REV_AT_EPOCH":21447,"BSTAR":4.0965015e-5,"MEAN_MOTION_DOT":3.64e-6,"MEAN_MOTION_DDOT":0},{"OBJECT_NAME":"PACE","OBJECT_ID":"2014-033N","EPOCH":"2026-03-09T22:47:44.809152","MEAN_MOTION":15.09745465,"ECCENTRICITY":0.00061206,"INCLINATION":98.125,"RA_OF_ASC_NODE":67.7953,"ARG_OF_PERICENTER":179.3374,"MEAN_ANOMALY":180.7863,"EPHEMERIS_TYPE":0,"CLASSIFICATION_TYPE":"U","NORAD_CAT_ID":40022,"ELEMENT_SET_NO":999,"REV_AT_EPOCH":63805,"BSTAR":0.00051174262,"MEAN_MOTION_DOT":8.193e-5,"MEAN_MOTION_DDOT":0}]
